SHIJIAN-17 (SJ-17)      
1 41838U 16065A   17345.93090142 -.00000369  00000-0  00000-0 0  9999
2 41838   0.3498  97.5929 0000560 303.6015 132.8768  1.00269494  4059
